[
  {
    "OBJECT_NAME": "STARLINK-2084",
    "OBJECT_ID": "21005V",
    "EPOCH": "2025-11-11T04:27:40.144320",
    "MEAN_MOTION": 15.063975,
    "ECCENTRICITY": 0.0001838,
    "INCLINATION": 53.055,
    "RA_OF_ASC_NODE": 233.6013,
    "ARG_OF_PERICENTER": 98.4249,
    "MEAN_ANOMALY": 261.6948,
    "EPHEMERIS_TYPE": 0,
    "CLASSIFICATION_TYPE": "U",
    "NORAD_CAT_ID": 47368,
    "ELEMENT_SET_NO": 999,
    "REV_AT_EPOCH": 26518,
    "BSTAR": 0.00014826,
    "MEAN_MOTION_DOT": 1.927e-05,
    "MEAN_MOTION_DDOT": 0.0,
    "TLE_LINE1": "1 47368U 21005V   25315.18588130  .00001927  00000+0  14826-3 0  9998",
    "TLE_LINE2": "2 47368  53.0550 233.6013 0001838  98.4249 261.6948 15.06397500265186",
    "COMMENT": "Grouped by shell and plane from TLE"
  },
  {
    "OBJECT_NAME": "STARLINK-2088",
    "OBJECT_ID": "21005Y",
    "EPOCH": "2025-11-11T01:37:49.290240",
    "MEAN_MOTION": 15.06403562,
    "ECCENTRICITY": 0.0001102,
    "INCLINATION": 53.0549,
    "RA_OF_ASC_NODE": 234.1309,
    "ARG_OF_PERICENTER": 90.9097,
    "MEAN_ANOMALY": 269.2018,
    "EPHEMERIS_TYPE": 0,
    "CLASSIFICATION_TYPE": "U",
    "NORAD_CAT_ID": 47371,
    "ELEMENT_SET_NO": 999,
    "REV_AT_EPOCH": 26516,
    "BSTAR": 0.00025407,
    "MEAN_MOTION_DOT": 3.505e-05,
    "MEAN_MOTION_DDOT": 0.0,
    "TLE_LINE1": "1 47371U 21005Y   25315.06793160  .00003505  00000+0  25407-3 0  9991",
    "TLE_LINE2": "2 47371  53.0549 234.1309 0001102  90.9097 269.2018 15.06403562265160",
    "COMMENT": "Grouped by shell and plane from TLE"
  },
  {
    "OBJECT_NAME": "STARLINK-2092",
    "OBJECT_ID": "21005AA",
    "EPOCH": "2025-11-11T04:43:35.932224",
    "MEAN_MOTION": 15.06408075,
    "ECCENTRICITY": 0.0001658,
    "INCLINATION": 53.0546,
    "RA_OF_ASC_NODE": 233.5552,
    "ARG_OF_PERICENTER": 89.0413,
    "MEAN_ANOMALY": 271.0766,
    "EPHEMERIS_TYPE": 0,
    "CLASSIFICATION_TYPE": "U",
    "NORAD_CAT_ID": 47373,
    "ELEMENT_SET_NO": 999,
    "REV_AT_EPOCH": 26518,
    "BSTAR": 0.00031358000000000004,
    "MEAN_MOTION_DOT": 4.393e-05,
    "MEAN_MOTION_DDOT": 0.0,
    "TLE_LINE1": "1 47373U 21005AA  25315.19694366  .00004393  00000+0  31358-3 0  9993",
    "TLE_LINE2": "2 47373  53.0546 233.5552 0001658  89.0413 271.0766 15.06408075265186",
    "COMMENT": "Grouped by shell and plane from TLE"
  },
  {
    "OBJECT_NAME": "STARLINK-2093",
    "OBJECT_ID": "21005AB",
    "EPOCH": "2025-11-11T05:10:07.553280",
    "MEAN_MOTION": 15.06398665,
    "ECCENTRICITY": 0.00012,
    "INCLINATION": 53.0542,
    "RA_OF_ASC_NODE": 233.4432,
    "ARG_OF_PERICENTER": 79.4534,
    "MEAN_ANOMALY": 280.659,
    "EPHEMERIS_TYPE": 0,
    "CLASSIFICATION_TYPE": "U",
    "NORAD_CAT_ID": 47374,
    "ELEMENT_SET_NO": 999,
    "REV_AT_EPOCH": 26518,
    "BSTAR": 0.00071568,
    "MEAN_MOTION_DOT": 0.00010394,
    "MEAN_MOTION_DDOT": 0.0,
    "TLE_LINE1": "1 47374U 21005AB  25315.21536520  .00010394  00000+0  71568-3 0  9999",
    "TLE_LINE2": "2 47374  53.0542 233.4432 0001200  79.4534 280.6590 15.06398665265183",
    "COMMENT": "Grouped by shell and plane from TLE"
  },
  {
    "OBJECT_NAME": "STARLINK-2094",
    "OBJECT_ID": "21005AC",
    "EPOCH": "2025-11-11T03:45:12.520224",
    "MEAN_MOTION": 15.06393786,
    "ECCENTRICITY": 0.0001845,
    "INCLINATION": 53.0533,
    "RA_OF_ASC_NODE": 233.7344,
    "ARG_OF_PERICENTER": 87.8556,
    "MEAN_ANOMALY": 272.2644,
    "EPHEMERIS_TYPE": 0,
    "CLASSIFICATION_TYPE": "U",
    "NORAD_CAT_ID": 47375,
    "ELEMENT_SET_NO": 999,
    "REV_AT_EPOCH": 26517,
    "BSTAR": 6.9023e-05,
    "MEAN_MOTION_DOT": 7.46e-06,
    "MEAN_MOTION_DDOT": 0.0,
    "TLE_LINE1": "1 47375U 21005AC  25315.15639491  .00000746  00000+0  69023-4 0  9998",
    "TLE_LINE2": "2 47375  53.0533 233.7344 0001845  87.8556 272.2644 15.06393786265176",
    "COMMENT": "Grouped by shell and plane from TLE"
  },
  {
    "OBJECT_NAME": "STARLINK-2096",
    "OBJECT_ID": "21005AD",
    "EPOCH": "2025-11-11T03:50:30.885216",
    "MEAN_MOTION": 15.06405648,
    "ECCENTRICITY": 0.0001275,
    "INCLINATION": 53.054,
    "RA_OF_ASC_NODE": 233.7187,
    "ARG_OF_PERICENTER": 100.4094,
    "MEAN_ANOMALY": 259.7039,
    "EPHEMERIS_TYPE": 0,
    "CLASSIFICATION_TYPE": "U",
    "NORAD_CAT_ID": 47376,
    "ELEMENT_SET_NO": 999,
    "REV_AT_EPOCH": 26517,
    "BSTAR": 0.00054008,
    "MEAN_MOTION_DOT": 7.773e-05,
    "MEAN_MOTION_DDOT": 0.0,
    "TLE_LINE1": "1 47376U 21005AD  25315.16007969  .00007773  00000+0  54008-3 0  9992",
    "TLE_LINE2": "2 47376  53.0540 233.7187 0001275 100.4094 259.7039 15.06405648265175",
    "COMMENT": "Grouped by shell and plane from TLE"
  },
  {
    "OBJECT_NAME": "STARLINK-2097",
    "OBJECT_ID": "21005AE",
    "EPOCH": "2025-11-11T01:53:44.426688",
    "MEAN_MOTION": 15.06386087,
    "ECCENTRICITY": 0.0001432,
    "INCLINATION": 53.0539,
    "RA_OF_ASC_NODE": 234.0845,
    "ARG_OF_PERICENTER": 83.9964,
    "MEAN_ANOMALY": 276.1189,
    "EPHEMERIS_TYPE": 0,
    "CLASSIFICATION_TYPE": "U",
    "NORAD_CAT_ID": 47377,
    "ELEMENT_SET_NO": 999,
    "REV_AT_EPOCH": 26516,
    "BSTAR": 0.0,
    "MEAN_MOTION_DOT": -1.295e-05,
    "MEAN_MOTION_DDOT": 0.0,
    "TLE_LINE1": "1 47377U 21005AE  25315.07898642 -.00001295  00000+0 -68101-4 0  9994",
    "TLE_LINE2": "2 47377  53.0539 234.0845 0001432  83.9964 276.1189 15.06386087265168",
    "COMMENT": "Grouped by shell and plane from TLE"
  },
  {
    "OBJECT_NAME": "STARLINK-2109",
    "OBJECT_ID": "21005AR",
    "EPOCH": "2025-11-11T01:05:58.784928",
    "MEAN_MOTION": 15.06396227,
    "ECCENTRICITY": 0.0001459,
    "INCLINATION": 53.055,
    "RA_OF_ASC_NODE": 234.2299,
    "ARG_OF_PERICENTER": 110.902,
    "MEAN_ANOMALY": 249.2126,
    "EPHEMERIS_TYPE": 0,
    "CLASSIFICATION_TYPE": "U",
    "NORAD_CAT_ID": 47388,
    "ELEMENT_SET_NO": 999,
    "REV_AT_EPOCH": 26515,
    "BSTAR": 0.00019199,
    "MEAN_MOTION_DOT": 2.579e-05,
    "MEAN_MOTION_DDOT": 0.0,
    "TLE_LINE1": "1 47388U 21005AR  25315.04581927  .00002579  00000+0  19199-3 0  9994",
    "TLE_LINE2": "2 47388  53.0550 234.2299 0001459 110.9020 249.2126 15.06396227265159",
    "COMMENT": "Grouped by shell and plane from TLE"
  },
  {
    "OBJECT_NAME": "STARLINK-2111",
    "OBJECT_ID": "21005AT",
    "EPOCH": "2025-11-11T05:15:26.563680",
    "MEAN_MOTION": 15.06407767,
    "ECCENTRICITY": 0.0001138,
    "INCLINATION": 53.0533,
    "RA_OF_ASC_NODE": 233.4522,
    "ARG_OF_PERICENTER": 108.5134,
    "MEAN_ANOMALY": 251.5979,
    "EPHEMERIS_TYPE": 0,
    "CLASSIFICATION_TYPE": "U",
    "NORAD_CAT_ID": 47390,
    "ELEMENT_SET_NO": 999,
    "REV_AT_EPOCH": 26518,
    "BSTAR": 0.00052052,
    "MEAN_MOTION_DOT": 7.482e-05,
    "MEAN_MOTION_DDOT": 0.0,
    "TLE_LINE1": "1 47390U 21005AT  25315.21905745  .00007482  00000+0  52052-3 0  9997",
    "TLE_LINE2": "2 47390  53.0533 233.4522 0001138 108.5134 251.5979 15.06407767265183",
    "COMMENT": "Grouped by shell and plane from TLE"
  },
  {
    "OBJECT_NAME": "STARLINK-2119",
    "OBJECT_ID": "21005BA",
    "EPOCH": "2025-11-11T04:22:22.151712",
    "MEAN_MOTION": 15.06401652,
    "ECCENTRICITY": 0.0001453,
    "INCLINATION": 53.0534,
    "RA_OF_ASC_NODE": 233.6182,
    "ARG_OF_PERICENTER": 96.498,
    "MEAN_ANOMALY": 263.6175,
    "EPHEMERIS_TYPE": 0,
    "CLASSIFICATION_TYPE": "U",
    "NORAD_CAT_ID": 47397,
    "ELEMENT_SET_NO": 999,
    "REV_AT_EPOCH": 26518,
    "BSTAR": 0.00023963,
    "MEAN_MOTION_DOT": 3.29e-05,
    "MEAN_MOTION_DDOT": 0.0,
    "TLE_LINE1": "1 47397U 21005BA  25315.18220083  .00003290  00000+0  23963-3 0  9997",
    "TLE_LINE2": "2 47397  53.0534 233.6182 0001453  96.4980 263.6175 15.06401652265188",
    "COMMENT": "Grouped by shell and plane from TLE"
  },
  {
    "OBJECT_NAME": "STARLINK-2130",
    "OBJECT_ID": "21005BJ",
    "EPOCH": "2025-11-11T01:00:40.645440",
    "MEAN_MOTION": 15.0640439,
    "ECCENTRICITY": 0.0001535,
    "INCLINATION": 53.0538,
    "RA_OF_ASC_NODE": 234.2491,
    "ARG_OF_PERICENTER": 82.2007,
    "MEAN_ANOMALY": 277.9156,
    "EPHEMERIS_TYPE": 0,
    "CLASSIFICATION_TYPE": "U",
    "NORAD_CAT_ID": 47405,
    "ELEMENT_SET_NO": 999,
    "REV_AT_EPOCH": 26515,
    "BSTAR": 0.00071887,
    "MEAN_MOTION_DOT": 0.00010443,
    "MEAN_MOTION_DDOT": 0.0,
    "TLE_LINE1": "1 47405U 21005BJ  25315.04213710  .00010443  00000+0  71887-3 0  9997",
    "TLE_LINE2": "2 47405  53.0538 234.2491 0001535  82.2007 277.9156 15.06404390265152",
    "COMMENT": "Grouped by shell and plane from TLE"
  },
  {
    "OBJECT_NAME": "STARLINK-2627",
    "OBJECT_ID": "21044BB",
    "EPOCH": "2025-11-11T01:18:35.123616",
    "MEAN_MOTION": 15.06405538,
    "ECCENTRICITY": 0.0001667,
    "INCLINATION": 53.0534,
    "RA_OF_ASC_NODE": 239.1944,
    "ARG_OF_PERICENTER": 100.0026,
    "MEAN_ANOMALY": 260.1151,
    "EPHEMERIS_TYPE": 0,
    "CLASSIFICATION_TYPE": "U",
    "NORAD_CAT_ID": 48687,
    "ELEMENT_SET_NO": 999,
    "REV_AT_EPOCH": 24659,
    "BSTAR": 0.00050885,
    "MEAN_MOTION_DOT": 7.307e-05,
    "MEAN_MOTION_DDOT": 0.0,
    "TLE_LINE1": "1 48687U 21044BB  25315.05457319  .00007307  00000+0  50885-3 0  9999",
    "TLE_LINE2": "2 48687  53.0534 239.1944 0001667 100.0026 260.1151 15.06405538246595",
    "COMMENT": "Grouped by shell and plane from TLE"
  },
  {
    "OBJECT_NAME": "STARLINK-2742",
    "OBJECT_ID": "21044BC",
    "EPOCH": "2025-11-11T04:34:57.970272",
    "MEAN_MOTION": 15.06414208,
    "ECCENTRICITY": 0.0001337,
    "INCLINATION": 53.0531,
    "RA_OF_ASC_NODE": 238.5806,
    "ARG_OF_PERICENTER": 82.3233,
    "MEAN_ANOMALY": 277.7908,
    "EPHEMERIS_TYPE": 0,
    "CLASSIFICATION_TYPE": "U",
    "NORAD_CAT_ID": 48688,
    "ELEMENT_SET_NO": 999,
    "REV_AT_EPOCH": 24661,
    "BSTAR": 0.0010009,
    "MEAN_MOTION_DOT": 0.00014664,
    "MEAN_MOTION_DDOT": 0.0,
    "TLE_LINE1": "1 48688U 21044BC  25315.19094873  .00014664  00000+0  10009-2 0  9994",
    "TLE_LINE2": "2 48688  53.0531 238.5806 0001337  82.3233 277.7908 15.06414208246610",
    "COMMENT": "Grouped by shell and plane from TLE"
  }
]